{
	"creator": "Satellites plugin version 0.6.4",
	"hintColor": [0.4, 0.4, 0.4],
	"satellites": 
	{
		"GPS BIIA-25 (PRN 03)": 
		{
			"comms": [],
			"groups": ["gps"],
			"lastUpdated": 2011-03-16T22:42:29,
			"orbitVisible": false,
			"tle1": "1 23833U 96019A   11073.56031221  .00000027  00000-0  10000-3 0  6806",
			"tle2": "2 23833  53.1947 125.1597 0138146  61.8009 299.6613  2.00566531109652",
			"visible": false
		},
		"GPS BIIA-26 (PRN 10)": 
		{
			"comms": [],
			"groups": ["gps"],
			"lastUpdated": 2011-03-16T22:42:29,
			"orbitVisible": false,
			"tle1": "1 23953U 96041A   11073.42950948  .00000047  00000-0  10000-3 0  1789",
			"tle2": "2 23953  54.4304 253.6371 0099662  39.3000 321.4166  2.00574368107442",
			"visible": false
		},
		"GPS BIIA-27 (PRN 30)": 
		{
			"comms": [],
			"groups": ["gps"],
			"lastUpdated": 2011-03-16T22:42:29,
			"orbitVisible": false,
			"tle1": "1 24320U 96056A   11073.44859403  .00000033  00000-0  00000-0 0  9093",
			"tle2": "2 24320  54.9880  69.9308 0123420  86.7717 274.6716  2.00566810106109",
			"visible": false
		},
		"GPS BIIA-28 (PRN 08)": 
		{
			"comms": [],
			"groups": ["gps"],
			"lastUpdated": 2011-03-16T22:42:29,
			"orbitVisible": false,
			"tle1": "1 25030U 97067A   11074.06323375 -.00000056  00000-0  10000-3 0  5847",
			"tle2": "2 25030  57.0511  17.0382 0115466 185.0632 174.8236  2.00571113 97883",
			"visible": false
		},
		"GPS BIIF-1  (PRN 25)": 
		{
			"comms": [],
			"groups": ["gps", "navigation"],
			"lastUpdated": 2011-03-16T22:42:29,
			"orbitVisible": false,
			"tle1": "1 36585U 10022A   11073.84195740  .00000037  00000-0  10000-3 0  3653",
			"tle2": "2 36585  55.1794  71.5772 0003370  31.2367 328.8182  2.00561548  5822",
			"visible": false
		},
		"GPS BIIR-02 (PRN 13)": 
		{
			"comms": [],
			"groups": ["gps"],
			"lastUpdated": 2011-03-16T22:42:29,
			"orbitVisible": false,
			"tle1": "1 24876U 97035A   11073.93386919 -.00000034  00000-0  10000-3 0  6473",
			"tle2": "2 24876  56.7475 316.8843 0043194 103.5174 257.0216  2.00568461 99988",
			"visible": false
		},
		"GPS BIIR-03 (PRN 11)": 
		{
			"comms": [],
			"groups": ["gps"],
			"lastUpdated": 2011-03-16T22:42:29,
			"orbitVisible": false,
			"tle1": "1 25933U 99055A   11074.19509733 -.00000010  00000-0  10000-3 0   908",
			"tle2": "2 25933  50.8810 178.0341 0114952  52.0910 308.9429  2.00582915 83805",
			"visible": false
		},
		"GPS BIIR-04 (PRN 20)": 
		{
			"comms": [],
			"groups": ["gps"],
			"lastUpdated": 2011-03-16T22:42:29,
			"orbitVisible": false,
			"tle1": "1 26360U 00025A   11073.80839003  .00000042  00000-0  10000-3 0  1809",
			"tle2": "2 26360  53.5135 250.2759 0044928  72.5609 287.9258  2.00558851 79491",
			"visible": false
		},
		"GPS BIIR-05 (PRN 28)": 
		{
			"comms": [],
			"groups": ["gps"],
			"lastUpdated": 2011-03-16T22:42:29,
			"orbitVisible": false,
			"tle1": "1 26407U 00040A   11074.14395006  .00000044  00000-0  10000-3 0  1347",
			"tle2": "2 26407  55.7872  74.6604 0171580 251.4432 106.7205  2.00561574 78179",
			"visible": false
		},
		"GPS BIIR-06 (PRN 14)": 
		{
			"comms": [],
			"groups": ["gps"],
			"lastUpdated": 2011-03-16T22:42:29,
			"orbitVisible": false,
			"tle1": "1 26605U 00071A   11073.74391273 -.00000033  00000-0  10000-3 0  1437",
			"tle2": "2 26605  56.3535 315.5315 0058142 242.0466 117.4192  2.00568354 75768",
			"visible": false
		},
		"GPS BIIR-07 (PRN 18)": 
		{
			"comms": [],
			"groups": ["gps"],
			"lastUpdated": 2011-03-16T22:42:29,
			"orbitVisible": false,
			"tle1": "1 26690U 01004A   11074.11796546  .00000040  00000-0  10000-3 0   214",
			"tle2": "2 26690  53.5091 253.3531 0121071 230.7009 128.2169  2.00552284 74180",
			"visible": false
		},
		"GPS BIIR-08 (PRN 16)": 
		{
			"comms": [],
			"groups": ["gps"],
			"lastUpdated": 2011-03-16T22:42:29,
			"orbitVisible": false,
			"tle1": "1 27663U 03005A   11073.97319742  .00000043  00000-0  10000-3 0  4363",
			"tle2": "2 27663  55.8854  74.2453 0062663 349.1003  10.7984  2.00553957 59536",
			"visible": false
		},
		"GPS BIIR-09 (PRN 21)": 
		{
			"comms": [],
			"groups": ["gps"],
			"lastUpdated": 2011-03-16T22:42:29,
			"orbitVisible": false,
			"tle1": "1 27704U 03010A   11074.52401661 -.00000005  00000-0  10000-3 0  3233",
			"tle2": "2 27704  53.3937 192.9049 0175844 223.4526 135.1315  2.00550045 58338",
			"visible": false
		},
		"GPS BIIR-10 (PRN 22)": 
		{
			"comms": [],
			"groups": ["gps"],
			"lastUpdated": 2011-03-16T22:42:29,
			"orbitVisible": false,
			"tle1": "1 28129U 03058A   11073.65955556  .00000042  00000-0  10000-3 0  9086",
			"tle2": "2 28129  53.3776 253.6141 0055623 247.8327 111.5749  2.00558548 53026",
			"visible": false
		},
		"GPS BIIR-11 (PRN 19)": 
		{
			"comms": [],
			"groups": ["gps"],
			"lastUpdated": 2011-03-16T22:42:29,
			"orbitVisible": false,
			"tle1": "1 28190U 04009A   11073.60434232  .00000019  00000-0  10000-3 0  8903",
			"tle2": "2 28190  54.9201 137.1156 0070454 357.6666   2.3668  2.00569059 51193",
			"visible": false
		},
		"GPS BIIR-12 (PRN 23)": 
		{
			"comms": [],
			"groups": ["gps"],
			"lastUpdated": 2011-03-16T22:42:29,
			"orbitVisible": false,
			"tle1": "1 28361U 04023A   11073.88834028 -.00000030  00000-0  10000-3 0  7156",
			"tle2": "2 28361  55.3010 312.9963 0070335 182.3408 177.6851  2.00574172 49289",
			"visible": false
		},
		"GPS BIIR-13 (PRN 02)": 
		{
			"comms": [],
			"groups": ["gps"],
			"lastUpdated": 2011-03-16T22:42:29,
			"orbitVisible": false,
			"tle1": "1 28474U 04045A   11073.88638844 -.00000002  00000-0  10000-3 0  5970",
			"tle2": "2 28474  53.8139 191.4232 0100971 185.5617 174.3099  2.00557975 46642",
			"visible": false
		},
		"GPS BIIRM-1 (PRN 17)": 
		{
			"comms": [],
			"groups": ["gps"],
			"lastUpdated": 2011-03-16T22:42:29,
			"orbitVisible": false,
			"tle1": "1 28874U 05038A   11073.24145659  .00000020  00000-0  10000-3 0  8617",
			"tle2": "2 28874  55.0633 134.0214 0062956 221.9495 137.6358  2.00557861 40054",
			"visible": false
		},
		"GPS BIIRM-2 (PRN 31)": 
		{
			"comms": [],
			"groups": ["gps"],
			"lastUpdated": 2011-03-16T22:42:29,
			"orbitVisible": false,
			"tle1": "1 29486U 06042A   11073.35275667 -.00000061  00000-0  10000-3 0  1954",
			"tle2": "2 29486  56.1099  12.8822 0080346 302.7470  56.4839  2.00571777 32756",
			"visible": false
		},
		"GPS BIIRM-3 (PRN 12)": 
		{
			"comms": [],
			"groups": ["gps"],
			"lastUpdated": 2011-03-16T22:42:29,
			"orbitVisible": false,
			"tle1": "1 29601U 06052A   11073.29455939  .00000039  00000-0  10000-3 0  2651",
			"tle2": "2 29601  55.8224  73.2560 0036943 340.6662  19.2295  2.00549618 31660",
			"visible": false
		},
		"GPS BIIRM-4 (PRN 15)": 
		{
			"comms": [],
			"groups": ["gps"],
			"lastUpdated": 2011-03-16T22:42:29,
			"orbitVisible": false,
			"tle1": "1 32260U 07047A   11073.11760914 -.00000030  00000-0  00000-0 0  9682",
			"tle2": "2 32260  54.4756 311.3529 0033964 351.1248   8.8681  2.00574943 25056",
			"visible": false
		},
		"GPS BIIRM-5 (PRN 29)": 
		{
			"comms": [],
			"groups": ["gps"],
			"lastUpdated": 2011-03-16T22:42:29,
			"orbitVisible": false,
			"tle1": "1 32384U 07062A   11074.41907800  .00000028  00000-0  10000-3 0    15",
			"tle2": "2 32384  55.0830 134.4507 0029334 286.7199  73.0332  2.00575836 23807",
			"visible": false
		},
		"GPS BIIRM-6 (PRN 07)": 
		{
			"comms": [],
			"groups": ["gps"],
			"lastUpdated": 2011-03-16T22:42:29,
			"orbitVisible": false,
			"tle1": "1 32711U 08012A   11074.02331903 -.00000063  00000-0  10000-3 0  8093",
			"tle2": "2 32711  55.8126  12.8025 0042040 185.8340 174.1226  2.00564125 22002",
			"visible": false
		},
		"GPS BIIRM-7 (PRN 01)": 
		{
			"comms": [],
			"groups": ["gps", "navigation"],
			"lastUpdated": 2011-03-16T22:42:29,
			"orbitVisible": false,
			"tle1": "1 34661U 09014A   11073.93382874  .00000039  00000-0  10000-3 0  7624",
			"tle2": "2 34661  55.4738  72.3003 0043387  48.2005 312.2018  2.00575843 14515",
			"visible": false
		},
		"GPS BIIRM-8 (PRN 05)": 
		{
			"comms": [],
			"groups": ["gps", "navigation"],
			"lastUpdated": 2011-03-16T22:42:29,
			"orbitVisible": false,
			"tle1": "1 35752U 09043A   11073.48334720  .00000047  00000-0  10000-3 0  5206",
			"tle2": "2 35752  54.7192 252.2509 0022101  11.1863 348.8588  2.00569336 11575",
			"visible": false
		},
		"H-2A R/B": 
		{
			"comms": [],
			"groups": ["visual"],
			"hintColor": [0.5, 0.5, 0.5],
			"lastUpdated": 2011-03-16T22:42:29,
			"orbitVisible": false,
			"tle1": "1 29394U 06037B   11075.14977583  .00023789  00000-0  42293-3 0  3919",
			"tle2": "2 29394  97.3973 217.2209 0028475 205.2835 154.7022 15.49710487253457",
			"visible": true
		},
		"HAMSAT (VO-52)": 
		{
			"comms": [
			{
				"description": "Beacon",
				"frequency": 145.86,
				"modulation": "CW"
			}],
			"groups": ["amateur"],
			"hintColor": [0.3, 0.2, 0],
			"lastUpdated": 2011-03-16T22:42:29,
			"orbitVisible": false,
			"tle1": "1 28650U 05017B   11075.12434020  .00000629  00000-0  85269-4 0  7432",
			"tle2": "2 28650  97.6543 122.3746 0028178 105.7558 254.6707 14.81945175316960",
			"visible": false
		},
		"HOPE-1 (HO-68)": 
		{
			"comms": [],
			"groups": ["amateur"],
			"hintColor": [0.3, 0.2, 0],
			"lastUpdated": 2011-03-16T22:42:29,
			"orbitVisible": false,
			"tle1": "1 36122U 09072B   11075.12900372 -.00000044  00000-0  00000+0 0  1967",
			"tle2": "2 36122 100.4267 137.3128 0008099  77.5511 282.6513 13.16284631 59997",
			"visible": false
		},
		"HST": 
		{
			"comms": [],
			"description": "The Hubble Space Telescope",
			"groups": ["scientific"],
			"hintColor": [0.5, 0.9, 0.9],
			"lastUpdated": 2011-03-16T22:42:29,
			"orbitVisible": true,
			"tle1": "1 20580U 90037B   11073.98588212  .00001610  00000-0  10976-3 0  7261",
			"tle2": "2 20580  28.4717 271.7470 0003510 200.5307 159.4884 15.01212051945487",
			"visible": true
		}
	},
	"shortName": "satellite orbital data"
}
